NORAD_CAT_ID,OBJECT_NAME,OBJECT_TYPE,EPOCH,MEAN_MOTION,ECCENTRICITY,INCLINATION,RA_OF_ASC_NODE,ARG_OF_PERICENTER,MEAN_ANOMALY,BSTAR,MEAN_MOTION_DOT,MEAN_MOTION_DDOT,TLE_LINE0,TLE_LINE1,TLE_LINE2,SEMIMAJOR_AXIS,PERIOD,APOGEE,PERIGEE,DECAYED
55305.0,STARLINK-5316,PAYLOAD,2023-11-09 03:50:50,14.98316513,0.0002976,70.0006,11.6595,279.7429,80.3393,0.0004854,5.701e-05,0.0,0 STARLINK-5316,1 55305U 23010AN  23313.16030681  .00005701  00000-0  48540-3 0  9998,2 55305  70.0006  11.6595 0002976 279.7429  80.3393 14.98316513 45404,6950.235,96.108,574.168,570.031,0.0
55305.0,STARLINK-5316,PAYLOAD,2023-11-09 13:27:38,14.98324561,0.0002721,70.0006,10.6478,285.3841,74.7017,0.00052126,6.131e-05,0.0,0 STARLINK-5316,1 55305U 23010AN  23313.56086414  .00006131  00000-0  52126-3 0  9990,2 55305  70.0006  10.6478 0002721 285.3841  74.7017 14.98324561 45785,6950.21,96.107,573.966,570.184,0.0
55305.0,STARLINK-5316,PAYLOAD,2023-11-09 21:28:19,14.98321684,0.0002872,70.0014,9.807,282.1718,77.9119,0.00030843,3.588e-05,0.0,0 STARLINK-5316,1 55305U 23010AN  23313.89467175  .00003588  00000-0  30843-3 0  9998,2 55305  70.0014   9.8070 0002872 282.1718  77.9119 14.98321684 45834,6950.219,96.108,574.08,570.088,0.0
55305.0,STARLINK-5316,PAYLOAD,2023-11-10 13:29:39,14.9833965,0.0002915,70.0,8.1214,276.8648,83.2179,-4.7299e-05,-6.57e-06,0.0,0 STARLINK-5316,1 55305U 23010AN  23314.56226618 -.00000657  00000-0 -47299-4 0  9998,2 55305  70.0000   8.1214 0002915 276.8648  83.2179 14.98339650 45930,6950.163,96.106,574.054,570.002,0.0
55305.0,STARLINK-5316,PAYLOAD,2023-11-11 13:31:40,14.98338786,0.0002947,69.9999,5.597,276.7852,83.2972,-7.4899e-05,-9.87e-06,0.0,0 STARLINK-5316,1 55305U 23010AN  23315.56366119 -.00000987  00000-0 -74899-4 0  9992,2 55305  69.9999   5.5970 0002947 276.7852  83.2972 14.98338786 46082,6950.166,96.106,574.079,569.983,0.0
55305.0,STARLINK-5316,PAYLOAD,2023-11-12 03:56:53,14.98328795,0.0003055,70.0001,4.082,277.6999,82.3813,7.6487e-06,-2e-08,0.0,0 STARLINK-5316,1 55305U 23010AN  23316.16450297 -.00000002  00000-0  76487-5 0  9993,2 55305  70.0001   4.0820 0003055 277.6999  82.3813 14.98328795 45857,6950.197,96.107,574.185,569.938,0.0
55305.0,STARLINK-5316,PAYLOAD,2023-11-12 13:33:41,14.98334313,0.000305,69.9996,3.0722,275.3245,84.7566,2.6195e-05,2.2e-06,0.0,0 STARLINK-5316,1 55305U 23010AN  23316.56505867  .00000220  00000-0  26195-4 0  9992,2 55305  69.9996   3.0722 0003050 275.3245  84.7566 14.98334313 46238,6950.18,96.107,574.164,569.925,0.0
55305.0,STARLINK-5316,PAYLOAD,2023-11-12 19:58:13,14.98333319,0.0003035,69.9998,2.3988,277.965,82.1165,1.6647e-05,1.06e-06,0.0,0 STARLINK-5316,1 55305U 23010AN  23316.83209903  .00000106  00000-0  16647-4 0  9998,2 55305  69.9998   2.3988 0003035 277.9650  82.1165 14.98333319 46273,6950.183,96.107,574.157,569.938,0.0
55305.0,STARLINK-5316,PAYLOAD,2023-11-13 03:58:53,14.98335122,0.0003002,69.9996,1.5572,276.9491,83.1326,3.59e-05,3.35e-06,0.0,0 STARLINK-5316,1 55305U 23010AN  23317.16589658  .00000335  00000-0  35900-4 0  9990,2 55305  69.9996   1.5572 0003002 276.9491  83.1326 14.98335122 46002,6950.177,96.107,574.128,569.956,0.0
55305.0,STARLINK-5316,PAYLOAD,2023-11-13 11:59:33,14.98337206,0.0002862,69.9996,0.7154,273.0899,86.9932,5.2442e-05,5.33e-06,0.0,0 STARLINK-5316,1 55305U 23010AN  23317.49969329  .00000533  00000-0  52442-4 0  9993,2 55305  69.9996   0.7154 0002862 273.0899  86.9932 14.98337206 46371,6950.171,96.107,574.025,570.046,0.0
55305.0,STARLINK-5316,PAYLOAD,2023-11-13 20:00:13,14.98360154,0.0002708,70.0007,359.8733,281.1674,78.918,-0.00048256,-5.85e-05,0.0,0 STARLINK-5316,1 55305U 23010AN  23317.83349050 -.00005850  00000-0 -48256-3 0  9990,2 55305  70.0007 359.8733 0002708 281.1674  78.9180 14.98360154 46103,6950.1,96.105,573.847,570.083,0.0
55305.0,STARLINK-5316,PAYLOAD,2023-11-14 04:00:54,14.9832697,0.000272,70.0,359.0327,270.3973,89.6874,-2.292e-05,-3.66e-06,0.0,0 STARLINK-5316,1 55305U 23010AN  23318.16730050 -.00000366  00000-0 -22920-4 0  9999,2 55305  70.0000 359.0327 0002720 270.3973  89.6874 14.98326970 46155,6950.202,96.107,573.958,570.177,0.0
55305.0,STARLINK-5316,PAYLOAD,2023-11-14 13:37:43,14.98324831,0.0002557,69.9998,358.0218,265.2173,94.8694,-6.2223e-05,-8.35e-06,0.0,0 STARLINK-5316,1 55305U 23010AN  23318.56786359 -.00000835  00000-0 -62223-4 0  9997,2 55305  69.9998 358.0218 0002557 265.2173  94.8694 14.98324831 46533,6950.209,96.107,573.851,570.297,0.0
55305.0,STARLINK-5316,PAYLOAD,2023-11-14 20:02:15,14.98329132,0.0002815,69.9994,357.349,272.6524,87.4312,-5.3053e-05,-7.26e-06,0.0,0 STARLINK-5316,1 55305U 23010AN  23318.83490102 -.00000726  00000-0 -53053-4 0  9995,2 55305  69.9994 357.3490 0002815 272.6524  87.4312 14.98329132 46570,6950.196,96.107,574.017,570.104,0.0
55305.0,STARLINK-5316,PAYLOAD,2023-11-15 04:02:55,14.98329987,0.0002957,69.9994,356.5073,271.1978,88.8842,-5.468e-05,-7.45e-06,0.0,0 STARLINK-5316,1 55305U 23010AN  23319.16869976 -.00000745  00000-0 -54680-4 0  9999,2 55305  69.9994 356.5073 0002957 271.1978  88.8842 14.98329987 46304,6950.193,96.107,574.113,570.003,0.0
55305.0,STARLINK-5316,PAYLOAD,2023-11-15 12:03:35,14.9833257,0.000289,69.9994,355.6653,268.701,91.3818,-2.6168e-05,-4.05e-06,0.0,0 STARLINK-5316,1 55305U 23010AN  23319.50249685 -.00000405  00000-0 -26168-4 0  9999,2 55305  69.9994 355.6653 0002890 268.7010  91.3818 14.98332570 46677,6950.185,96.107,574.059,570.041,0.0
55305.0,STARLINK-5316,PAYLOAD,2023-11-15 20:04:16,14.98328433,0.0002285,70.001,354.8225,276.7688,83.3211,-3.3293e-05,-4.9e-06,0.0,0 STARLINK-5316,1 55305U 23010AN  23319.83630182 -.00000490  00000-0 -33293-4 0  9992,2 55305  70.0010 354.8225 0002285 276.7688  83.3211 14.98328433 46720,6950.198,96.107,573.651,570.475,0.0
55305.0,STARLINK-5316,PAYLOAD,2023-11-16 02:28:47,14.98329231,0.0002502,70.0006,354.1492,269.2686,90.8186,0.00023154,2.671e-05,0.0,0 STARLINK-5316,1 55305U 23010AN  23320.10333304  .00002671  00000-0  23154-3 0  9995,2 55305  70.0006 354.1492 0002502 269.2686  90.8186 14.98329231 46441,6950.195,96.107,573.799,570.321,0.0
55305.0,STARLINK-5316,PAYLOAD,2023-11-16 08:53:20,14.98323026,0.0002497,69.9999,353.4767,258.5151,101.5727,4.9241e-05,4.95e-06,0.0,0 STARLINK-5316,1 55305U 23010AN  23320.37038111  .00000495  00000-0  49241-4 0  9990,2 55305  69.9999 353.4767 0002497 258.5151 101.5727 14.98323026 46804,6950.214,96.107,573.815,570.344,0.0
55305.0,STARLINK-5316,PAYLOAD,2023-11-17 04:06:57,14.98329486,0.0002692,70.0004,351.4581,263.464,96.6212,3.0985e-05,2.77e-06,0.0,0 STARLINK-5316,1 55305U 23010AN  23321.17149760  .00000277  00000-0  30985-4 0  9995,2 55305  70.0004 351.4581 0002692 263.4640  96.6212 14.98329486 46608,6950.194,96.107,573.93,570.188,0.0
55305.0,STARLINK-5316,PAYLOAD,2023-11-17 12:07:38,14.98324673,0.0002445,70.0005,350.6173,256.5291,103.5596,-1.8543e-05,-3.14e-06,0.0,0 STARLINK-5316,1 55305U 23010AN  23321.50530286 -.00000314  00000-0 -18543-4 0  9999,2 55305  70.0005 350.6173 0002445 256.5291 103.5596 14.98324673 46974,6950.209,96.107,573.774,570.375,0.0
55305.0,STARLINK-5316,PAYLOAD,2023-11-18 04:08:58,14.98329193,0.0002777,70.0006,348.9327,270.893,89.1911,2.9384e-05,2.58e-06,0.0,0 STARLINK-5316,1 55305U 23010AN  23322.17289825  .00000258  00000-0  29384-4 0  9993,2 55305  70.0006 348.9327 0002777 270.8930  89.1911 14.98329193 46751,6950.195,96.107,573.99,570.13,0.0
55305.0,STARLINK-5316,PAYLOAD,2023-11-18 12:09:49,14.98183558,0.0002135,70.0013,348.0926,242.0854,118.0089,-0.0016058,-0.00019128,0.0,0 STARLINK-5316,1 55305U 23010AN  23322.50682503 -.00019128  00000-0 -16058-2 0  9990,2 55305  70.0013 348.0926 0002135 242.0854 118.0089 14.98183558 46806,6950.646,96.116,573.995,571.027,0.0
55305.0,STARLINK-5316,PAYLOAD,2023-11-18 18:34:10,14.983341,0.000298,70.0022,347.4178,258.9608,101.1216,1.3626e-05,7e-07,0.0,0 STARLINK-5316,1 55305U 23010AN  23322.77373326  .00000070  00000-0  13626-4 0  9993,2 55305  70.0022 347.4178 0002980 258.9608 101.1216 14.98334100 46849,6950.18,96.107,574.116,569.974,0.0
55305.0,STARLINK-5316,PAYLOAD,2023-11-19 10:35:33,14.98313623,0.0002267,70.0002,345.7342,259.9959,100.0945,-0.00016183,-2.022e-05,0.0,0 STARLINK-5316,1 55305U 23010AN  23323.44135629 -.00002022  00000-0 -16183-3 0  9991,2 55305  70.0002 345.7342 0002267 259.9959 100.0945 14.98313623 46944,6950.244,96.108,573.684,570.533,0.0
55305.0,STARLINK-5316,PAYLOAD,2023-11-19 12:11:40,14.98349669,0.000207,69.9998,345.565,254.4497,105.6433,-0.00075411,-9.083e-05,0.0,0 STARLINK-5316,1 55305U 23010AN  23323.50810764 -.00009083  00000-0 -75411-3 0  9991,2 55305  69.9998 345.5650 0002070 254.4497 105.6433 14.98349669 47273,6950.132,96.106,573.436,570.558,0.0
55305.0,STARLINK-5316,PAYLOAD,2023-11-19 18:36:13,14.98331261,0.0002372,70.0,344.8918,275.4837,84.6052,-0.00028768,-3.524e-05,0.0,0 STARLINK-5316,1 55305U 23010AN  23323.77515100 -.00003524  00000-0 -28768-3 0  9993,2 55305  70.0000 344.8918 0002372 275.4837  84.6052 14.98331261 46995,6950.189,96.107,573.703,570.405,0.0
55305.0,STARLINK-5316,PAYLOAD,2023-11-20 09:01:26,14.98312514,0.0002404,69.9998,343.3767,268.3518,91.7366,-0.00013546,-1.708e-05,0.0,0 STARLINK-5316,1 55305U 23010AN  23324.37600148 -.00001708  00000-0 -13546-3 0  9997,2 55305  69.9998 343.3767 0002404 268.3518  91.7366 14.98312514 47085,6950.247,96.108,573.783,570.441,0.0
55305.0,STARLINK-5316,PAYLOAD,2023-11-20 10:37:37,14.98269405,0.0002542,69.9999,343.2084,274.2949,85.792,-0.00061201,-7.376e-05,0.0,0 STARLINK-5316,1 55305U 23010AN  23324.44279890 -.00007376  00000-0 -61201-3 0  9999,2 55305  69.9999 343.2084 0002542 274.2949  85.7920 14.98269405 47410,6950.38,96.111,574.012,570.478,0.0
55305.0,STARLINK-5316,PAYLOAD,2023-11-20 18:38:13,14.98331865,0.0002904,69.9989,342.3668,271.7648,88.3178,-7.4597e-05,-9.83e-06,0.0,0 STARLINK-5316,1 55305U 23010AN  23324.77654853 -.00000983  00000-0 -74597-4 0  9991,2 55305  69.9989 342.3668 0002904 271.7648  88.3178 14.98331865 47141,6950.187,96.107,574.07,570.034,0.0
